ONEWEB-0709             
1 55172U 23004AJ  24244.50175018  .00000614  00000+0  16977-2 0  9994
2 55172  87.8989 151.4700 0002442  99.9797 260.1606 13.11419342 80065
ONEWEB-0710             
1 55173U 23004AK  24244.40666944  .00000073  00000+0  15477-3 0  9991
2 55173  87.9162 136.3094 0002064  77.5742 282.5620 13.17648004 81352
ONEWEB-0711             
1 55174U 23004AL  24244.47292015 -.00000574  00000+0 -16543-2 0  9995
2 55174  87.8992 151.4447 0002648  61.7026 298.4369 13.11417075 80026
ONEWEB-0713             
1 55175U 23004AM  24244.49158441  .00000290  00000+0  78377-3 0  9999
2 55175  87.8990 151.4491 0002182  68.5320 291.6040 13.11417019 80017
ONEWEB-0715             
1 55176U 23004AN  24244.48649974  .00000157  00000+0  40858-3 0  9990
2 55176  87.8992 151.4502 0002260  81.0224 279.1159 13.11417663 80054
ONEWEB-0716             
1 55177U 23004AP  24244.40018207  .00000056  00000+0  11129-3 0  9999
2 55177  87.9164 136.3039 0001703  73.7761 286.3558 13.17646509 81355
ONEWEB-0717             
1 55178U 23004AQ  24244.45836677  .00000151  00000+0  35574-3 0  9990
2 55178  87.9163 136.2555 0002753  69.9083 290.2345 13.17648255 81412
ONEWEB-0719             
1 55179U 23004AR  24244.39372069 -.00000099  00000+0 -28816-3 0  9998
2 55179  87.9162 136.2542 0001775  67.8171 292.3149 13.17646959 81353
ONEWEB-0530             
1 55796U 23029A   24244.40028065  .00000108  00000+0  23345-3 0  9997
2 55796  87.9208  44.7208 0002044  77.2320 282.9042 13.20771420 74717
ONEWEB-0534             
1 55797U 23029B   24244.16037922 -.00000108  00000+0 -29757-3 0  9998
2 55797  87.9212  44.7767 0001502  94.5960 265.5345 13.20768738 74680
ONEWEB-0556             
1 55798U 23029C   24244.62122126  .00000174  00000+0  39490-3 0  9997
2 55798  87.9209  44.6771 0001382  62.5808 297.5466 13.20774774 74746
ONEWEB-0562             
1 55799U 23029D   24244.15407334  .00000096  00000+0  20469-3 0  9992
2 55799  87.9206  44.7615 0002070  61.2762 298.8579 13.20770230 74687
ONEWEB-0563             
1 55800U 23029E   24243.99624844  .00000052  00000+0  96054-4 0  9999
2 55800  87.9208  44.8078 0001518  95.0884 265.0422 13.20771307 74658
ONEWEB-0564             
1 55801U 23029F   24244.14143580  .00000013  00000+0  53019-6 0  9994
2 55801  87.9211  44.7649 0002003  81.7046 278.4314 13.20772644 74684
ONEWEB-0638             
1 55802U 23029G   24244.24729117 -.00000603  00000+0 -16601-2 0  9991
2 55802  87.8928  60.0152 0001356  72.7463 287.3815 13.14509090 73356
ONEWEB-0639             
1 55803U 23029H   24244.42970680  .00000046  00000+0  82403-4 0  9999
2 55803  87.9092  75.2275 0001370 140.4514 219.6719 13.19727278 72546
ONEWEB-0640             
1 55804U 23029J   24244.25680362  .00000204  00000+0  51526-3 0  9993
2 55804  87.8926  60.0076 0000920  77.2210 282.9022 13.14503778 73377
ONEWEB-0641             
1 55805U 23029K   24244.42497375  .00000064  00000+0  12737-3 0  9998
2 55805  87.9092  75.2087 0001572  95.3840 264.7472 13.19726907 72559
ONEWEB-0642             
1 55806U 23029L   24244.26862235  .00000044  00000+0  77995-4 0  9998
2 55806  87.9094  75.2653 0001632 124.9144 235.2143 13.19723349 72526
ONEWEB-0643             
1 55807U 23029M   24244.22668015 -.00000103  00000+0 -31213-3 0  9995
2 55807  87.8928  59.9916 0002166 117.6616 242.4734 13.14503593 73348
ONEWEB-0644             
1 55808U 23029N   24244.26386653  .00000107  00000+0  23464-3 0  9996
2 55808  87.9096  75.2639 0001617 110.0124 250.1183 13.19726937 72527
ONEWEB-0645             
1 55809U 23029P   24244.25993311  .00000129  00000+0  28940-3 0  9999
2 55809  87.9095  75.2649 0001266  98.4806 261.6470 13.19724798 72523
ONEWEB-0646             
1 55810U 23029Q   24243.98667326  .00000176  00000+0  40812-3 0  9998
2 55810  87.9090  75.3178 0001728  97.0890 263.0439 13.19725785 72471
ONEWEB-0648             
1 55811U 23029R   24244.19495796  .00000083  00000+0  18940-3 0  9997
2 55811  87.8927  59.9700 0001201 130.0276 230.0959 13.14504129 73341
ONEWEB-0649             
1 55812U 23029S   24244.25282120  .00000102  00000+0  22361-3 0  9994
2 55812  87.9089  75.2589 0001490  98.4621 261.6681 13.19724472 72542
ONEWEB-0650             
1 55813U 23029T   24244.24807037  .00000264  00000+0  62624-3 0  9999
2 55813  87.9097  75.2629 0001806  97.9213 262.2125 13.19727146 72517
ONEWEB-0652             
1 55814U 23029U   24244.25207041  .00000259  00000+0  66288-3 0  9994
2 55814  87.8926  59.9702 0001824  86.3672 273.7666 13.14504043 73321
ONEWEB-0653             
1 55815U 23029V   24244.38842357 -.00000193  00000+0 -55552-3 0  9995
2 55815  87.8932  59.9246 0001566  80.3484 279.7823 13.14501875 73376
ONEWEB-0654             
1 55816U 23029W   24244.23143169 -.00000263  00000+0 -74480-3 0  9994
2 55816  87.8929  59.9642 0001945  77.3560 282.7788 13.14501566 73376
ONEWEB-0656             
1 55817U 23029X   24244.21088462  .00000119  00000+0  26074-3 0  9991
2 55817  87.9208  44.6929 0002376  84.3032 275.8372 13.20773467 74694
ONEWEB-0657             
1 55818U 23029Y   24244.24333164  .00000083  00000+0  17508-3 0  9999
2 55818  87.9092  75.2692 0002662  90.5183 269.6255 13.19727659 72528
ONEWEB-0658             
1 55819U 23029Z   24244.23859442  .00000093  00000+0  20097-3 0  9999
2 55819  87.9092  75.2053 0001603 109.3858 250.7448 13.19727553 72531
ONEWEB-0660             
1 55820U 23029AA  24244.43758418 -.00000157  00000+0 -45739-3 0  9997
2 55820  87.8927  59.8967 0001252  92.9531 267.1741 13.14499931 73389
ONEWEB-0661             
1 55821U 23029AB  24244.24413095  .00000271  00000+0  69581-3 0  9992
2 55821  87.8925  60.0031 0001305  86.8633 273.2646 13.14503732 73341
ONEWEB-0662             
1 55822U 23029AC  24244.20289522 -.00000076  00000+0 -24047-3 0  9998
2 55822  87.8929  60.0188 0001384  96.6689 263.4598 13.14503775 73384
ONEWEB-0663             
1 55823U 23029AD  24243.97542432  .00000090  00000+0  19012-3 0  9994
2 55823  87.9210  44.7999 0001355 101.5349 258.5937 13.20796622 74650
ONEWEB-0664             
1 55824U 23029AE  24244.34977988  .00000016  00000+0  72661-5 0  9994
2 55824  87.9212  44.7397 0001503  77.0409 283.0892 13.20770468 74703
ONEWEB-0665             
1 55825U 23029AF  24244.39318285  .00000187  00000+0  47094-3 0  9998
2 55825  87.8929  59.9483 0001379  92.9514 267.1774 13.14504503 73389
ONEWEB-0666             
1 55826U 23029AG  24244.41919536 -.00000175  00000+0 -46329-3 0  9997
2 55826  87.9214  44.7161 0002125  84.9206 275.2170 13.20772498 74728
ONEWEB-0667             
1 55827U 23029AH  24244.41290875  .00000134  00000+0  29793-3 0  9995
2 55827  87.9210  44.6504 0001482  89.9184 270.2119 13.20769358 74718
ONEWEB-0669             
1 55828U 23029AJ  24244.40815266 -.00000257  00000+0 -66472-3 0  9995
2 55828  87.9208  44.6885 0002047  70.5961 289.5394 13.20768842 74710
ONEWEB-0670             
1 55829U 23029AK  24244.44710251 -.00000070  00000+0 -22418-3 0  9993
2 55829  87.8929  59.9455 0001315  81.2931 278.8347 13.14500324 73412
ONEWEB-0671             
1 55830U 23029AL  24244.23385750  .00000146  00000+0  33223-3 0  9992
2 55830  87.9088  75.2685 0001490  85.1816 274.9486 13.19723382 72513
ONEWEB-0672             
1 55831U 23029AM  24244.40342042  .00000166  00000+0  37548-3 0  9995
2 55831  87.9206  44.6736 0002140  88.9779 271.1600 13.20766816 74717
ONEWEB-0673             
1 55832U 23029AN  24243.98271166  .00000107  00000+0  23542-3 0  9990
2 55832  87.9091  75.2852 0001492  87.8066 272.3238 13.19727194 72481
ONEWEB-0674             
1 55833U 23029AP  24244.18704941  .00000196  00000+0  49381-3 0  9993
2 55833  87.8926  59.9995 0001401  69.9814 290.1467 13.14503623 73361
ONEWEB-0675             
1 55834U 23029AQ  24244.22597375  .00000070  00000+0  14202-3 0  9995
2 55834  87.9095  75.2725 0002087  95.3136 264.8235 13.19723322 72537
ONEWEB-0720             
1 55835U 23029AR  24243.99060826  .00001221  00000+0  30178-2 0  9993
2 55835  87.9090  75.3193 0001824  98.6735 261.4605 13.19734554 72423
ONEWEB-0537             
1 56046U 23043A   24244.55679121  .00000163  00000+0  39182-3 0  9990
2 56046  87.9166 359.1157 0002159 100.5111 259.6263 13.16594944 72825
ONEWEB-0538             
1 56047U 23043B   24244.55044331  .00000218  00000+0  53641-3 0  9997
2 56047  87.9168 359.1373 0001976 109.2259 250.9086 13.16596449 72833
ONEWEB-0546             
1 56048U 23043C   24244.61378762  .00000139  00000+0  32923-3 0  9995
2 56048  87.9168 359.0897 0002584  89.9332 270.2095 13.16593447 72836
ONEWEB-0547             
1 56049U 23043D   24244.62690180  .00000182  00000+0  41016-3 0  9999
2 56049  87.9340  14.2978 0001953 105.4522 254.6828 13.21823723 71752
ONEWEB-0548             
1 56050U 23043E   24244.56310717  .00000122  00000+0  28597-3 0  9992
2 56050  87.9169 359.1424 0001391  85.2622 274.8668 13.16594556 72820
ONEWEB-0549             
1 56051U 23043F   24244.61822218  .00000212  00000+0  48291-3 0  9996
2 56051  87.9342  14.3001 0001819 103.3124 256.8212 13.21827685 71753
ONEWEB-0550             
1 56052U 23043G   24244.60561316  .00000172  00000+0  38566-3 0  9994
2 56052  87.9339  14.3078 0001635  96.5280 263.6040 13.21823370 71758
ONEWEB-0551             
1 56053U 23043H   24244.37768303  .00000076  00000+0  16742-3 0  9999
2 56053  87.9068  29.5329 0001650 103.9180 256.2133 13.15551042 70302
ONEWEB-0552             
1 56054U 23043J   24244.59930530  .00000164  00000+0  36458-3 0  9991
2 56054  87.9337  14.3186 0001520 103.2608 256.8696 13.21823577 71751
ONEWEB-0553             
1 56055U 23043K   24244.62010896  .00000079  00000+0  17356-3 0  9991
2 56055  87.9166 359.1196 0002183  96.4749 263.6630 13.16597092 72847
ONEWEB-0554             
1 56056U 23043L   24244.60744185  .00000056  00000+0  11250-3 0  9997
2 56056  87.9178 359.1468 0001673  97.6700 262.4621 13.16593300 72829
